IRIDIUM 921 [-]         
1 24873U 97034E   23309.52058863  .00030956  00000+0  11519-2 0  9992
2 24873  86.3897  38.1134 0005782  42.9901 317.1796 15.27345107440775
IRIDIUM 26 [-]          
1 24903U 97043A   23309.56968566  .00000670  00000+0  22367-3 0  9994
2 24903  86.3992 358.0089 0001980  95.4517 264.6905 14.36067229372092
IRIDIUM 22 [-]          
1 24907U 97043E   23309.59229365  .00000678  00000+0  23154-3 0  9991
2 24907  86.3998   1.0564 0002150  91.5853 268.5589 14.34974636372194
DUMMY MASS 1 [-]        
1 24925U 97048A   23309.55952156  .00000934  00000+0  10394-3 0  9990
2 24925  86.3376  47.7300 0009145  79.1479 281.0774 14.85910371417543
DUMMY MASS 2 [-]        
1 24926U 97048B   23309.55983946  .00000944  00000+0  10565-3 0  9993
2 24926  86.3374  49.2333 0010018  87.2053 273.0318 14.85671521417337
IRIDIUM 29 [-]          
1 24944U 97051A   23309.59658285  .00000624  00000+0  21044-3 0  9995
2 24944  86.4003  31.0151 0002221  87.3189 272.8261 14.35429411368661
IRIDIUM 33 [-]          
1 24946U 97051C   23309.48891108  .00000625  00000+0  21618-3 0  9996
2 24946  86.3919  30.3335 0007467 187.1249 172.9842 14.34167027368203
IRIDIUM 28 [-]          
1 24948U 97051E   23309.60908260  .00000795  00000+0  26514-3 0  9998
2 24948  86.4009  28.8656 0001905 104.0752 256.0657 14.36372124369186
